NORAD_CAT_ID,OBJECT_NAME,OBJECT_TYPE,EPOCH,MEAN_MOTION,ECCENTRICITY,INCLINATION,RA_OF_ASC_NODE,ARG_OF_PERICENTER,MEAN_ANOMALY,BSTAR,MEAN_MOTION_DOT,MEAN_MOTION_DDOT,TLE_LINE0,TLE_LINE1,TLE_LINE2,SEMIMAJOR_AXIS,PERIOD,APOGEE,PERIGEE,DECAYED
56779.0,STARLINK-6231,PAYLOAD,2023-12-15 14:00:01,15.11653223,0.0003387,69.9992,219.8155,260.9934,100.7423,-0.055489,-0.00878315,0.0,0 STARLINK-6231,1 56779U 23078N   23349.58334491 -.00878315  00000-0 -55489-1 0  9998,2 56779  69.9992 219.8155 0003387 260.9934 100.7423 15.11653223 31331,6909.295,95.26,533.5,528.82,0.0
56779.0,STARLINK-6231,PAYLOAD,2023-12-15 22:00:00,15.11021899,0.0003343,69.9992,218.9579,267.5745,107.2495,-0.059834,-0.00926761,0.0,0 STARLINK-6231,1 56779U 23078N   23349.91667824 -.00926761  00000-0 -59834-1 0  9991,2 56779  69.9992 218.9579 0003343 267.5745 107.2495 15.11021899  5808,6911.219,95.3,535.395,530.774,0.0
56779.0,STARLINK-6231,PAYLOAD,2023-12-16 06:00:02,15.10391393,0.0003304,69.999,218.101,269.7418,117.4433,-0.063667,-0.00965799,0.0,0 STARLINK-6231,1 56779U 23078N   23350.25002315 -.00965799  00000-0 -63667-1 0  9991,2 56779  69.9990 218.1010 0003304 269.7418 117.4433 15.10391393 31437,6913.142,95.34,537.292,532.723,0.0
56779.0,STARLINK-6231,PAYLOAD,2023-12-16 14:00:01,15.09700736,0.0003318,69.9992,217.2452,264.0849,134.5673,-0.058957,-0.00883624,0.0,0 STARLINK-6231,1 56779U 23078N   23350.58334491 -.00883624  00000-0 -58957-1 0  9992,2 56779  69.9992 217.2452 0003318 264.0849 134.5673 15.09700736  5902,6915.251,95.383,539.41,534.821,0.0
56779.0,STARLINK-6231,PAYLOAD,2023-12-16 22:00:00,15.0905945,0.0003299,69.9993,216.3901,268.7733,140.6245,-0.062553,-0.00918374,0.0,0 STARLINK-6231,1 56779U 23078N   23350.91667824 -.00918374  00000-0 -62553-1 0  9996,2 56779  69.9993 216.3901 0003299 268.7733 140.6245 15.09059450 31534,6917.21,95.424,541.357,536.793,0.0
56779.0,STARLINK-6231,PAYLOAD,2023-12-17 14:00:01,15.07747765,0.0003276,69.9995,214.6826,264.5116,164.0794,-0.062586,-0.0088868,0.0,0 STARLINK-6231,1 56779U 23078N   23351.58335648 -.00888680  00000-0 -62586-1 0  9998,2 56779  69.9995 214.6826 0003276 264.5116 164.0794 15.07747765  5976,6921.221,95.507,545.353,540.819,0.0
56779.0,STARLINK-6231,PAYLOAD,2023-12-17 22:00:00,15.07100151,0.0003255,69.9996,213.8302,269.2942,167.6347,-0.065597,-0.00913209,0.0,0 STARLINK-6231,1 56779U 23078N   23351.91667824 -.00913209  00000-0 -65597-1 0  9990,2 56779  69.9996 213.8302 0003255 269.2942 167.6347 15.07100151 31685,6923.204,95.548,547.322,542.815,0.0
56779.0,STARLINK-6231,PAYLOAD,2023-12-18 14:00:01,15.05794149,0.0003221,69.9999,212.1279,264.8498,186.5142,-0.066356,-0.00893166,0.0,0 STARLINK-6231,1 56779U 23078N   23352.58334491 -.00893166  00000-0 -66356-1 0  9998,2 56779  69.9999 212.1279 0003221 264.8498 186.5142 15.05794149  5838,6927.206,95.631,551.302,546.84,0.0
56779.0,STARLINK-6231,PAYLOAD,2023-12-18 22:00:01,15.05139804,0.0003197,69.9998,211.278,269.7772,187.7055,-0.068614,-0.00906362,0.0,0 STARLINK-6231,1 56779U 23078N   23352.91668981 -.00906362  00000-0 -68614-1 0  9991,2 56779  69.9998 211.2780 0003197 269.7772 187.7055 15.05139804 31831,6929.214,95.672,553.294,548.863,0.0
56779.0,STARLINK-6231,PAYLOAD,2023-12-19 14:00:01,15.03840089,0.0003155,70.0002,209.581,265.1671,201.9926,-0.070281,-0.00897249,0.0,0 STARLINK-6231,1 56779U 23078N   23353.58334491 -.00897249  00000-0 -70281-1 0  9997,2 56779  70.0002 209.5810 0003155 265.1671 201.9926 15.03840089  5981,6933.205,95.755,557.258,552.883,0.0
56779.0,STARLINK-6231,PAYLOAD,2023-12-19 22:00:00,15.03180566,0.0003124,70.0001,208.7338,270.3661,200.5043,-0.071928,-0.00901875,0.0,0 STARLINK-6231,1 56779U 23078N   23353.91667824 -.00901875  00000-0 -71928-1 0  9993,2 56779  70.0001 208.7338 0003124 270.3661 200.5043 15.03180566 31980,6935.233,95.797,559.265,554.932,0.0
56779.0,STARLINK-6231,PAYLOAD,2023-12-20 14:00:01,15.01884546,0.0003095,70.0004,207.042,265.6637,210.2513,-0.074142,-0.00898423,0.0,0 STARLINK-6231,1 56779U 23078N   23354.58334491 -.00898423  00000-0 -74142-1 0  9993,2 56779  70.0004 207.0420 0003095 265.6637 210.2513 15.01884546 32083,6939.222,95.88,563.235,558.94,0.0
56779.0,STARLINK-6231,PAYLOAD,2023-12-20 22:00:00,15.01221898,0.0003095,70.0002,206.1974,271.3976,205.8824,-0.075459,-0.00898492,0.0,0 STARLINK-6231,1 56779U 23078N   23354.91667824 -.00898492  00000-0 -75459-1 0  9997,2 56779  70.0002 206.1974 0003095 271.3976 205.8824 15.01221898  5816,6941.264,95.922,565.278,560.981,0.0
56779.0,STARLINK-6231,PAYLOAD,2023-12-21 06:00:00,15.00600071,0.0002983,70.0,205.3536,270.3776,207.4652,-0.082122,-0.00968246,0.0,0 STARLINK-6231,1 56779U 23078N   23355.25001157 -.00968246  00000-0 -82122-1 0  9996,2 56779  70.0000 205.3536 0002983 270.3776 207.4652 15.00600071 32181,6943.182,95.962,567.118,562.976,0.0
56779.0,STARLINK-6231,PAYLOAD,2023-12-21 14:00:01,14.99838832,0.0002944,70.0002,204.5107,264.5838,213.0623,-0.057442,-0.00666127,0.0,0 STARLINK-6231,1 56779U 23078N   23355.58334491 -.00666127  00000-0 -57442-1 0  9992,2 56779  70.0002 204.5107 0002944 264.5838 213.0623 14.99838832 32231,6945.531,96.01,569.441,565.351,0.0
56779.0,STARLINK-6231,PAYLOAD,2023-12-21 22:00:01,14.99296165,0.0002948,70.0,203.6684,269.6732,207.0394,0.00047257,5.692e-05,0.0,0 STARLINK-6231,1 56779U 23078N   23355.91668981  .00005692  00000-0  47257-3 0  9990,2 56779  70.0000 203.6684 0002948 269.6732 207.0394 14.99296165 32282,6947.207,96.045,571.12,567.024,0.0
56779.0,STARLINK-6231,PAYLOAD,2023-12-22 00:00:00,14.99285097,0.0002836,70.0002,203.4579,271.2867,295.0271,0.002426,0.00029704,0.0,0 STARLINK-6231,1 56779U 23078N   23356.00001157  .00029704  00000-0  24260-2 0  9995,2 56779  70.0002 203.4579 0002836 271.2867 295.0271 14.99285097  5967,6947.241,96.046,571.076,567.136,0.0
56779.0,STARLINK-6231,PAYLOAD,2023-12-22 14:00:01,14.99436064,0.0002838,70.0,201.9852,267.7262,206.1583,-0.03572,-0.00413807,0.0,0 STARLINK-6231,1 56779U 23078N   23356.58334491 -.00413807  00000-0 -35720-1 0  9993,2 56779  70.0000 201.9852 0002838 267.7262 206.1583 14.99436064 32380,6946.775,96.036,570.611,566.668,0.0
56779.0,STARLINK-6231,PAYLOAD,2023-12-22 22:00:00,14.99100648,0.0002832,69.9999,201.1434,272.1742,200.3675,-0.077064,-0.00870002,0.0,0 STARLINK-6231,1 56779U 23078N   23356.91667824 -.00870002  00000-0 -77064-1 0  9990,2 56779  69.9999 201.1434 0002832 272.1742 200.3675 14.99100648 32439,6947.811,96.058,571.643,567.708,0.0
56779.0,STARLINK-6231,PAYLOAD,2023-12-23 06:00:00,14.98376328,0.0002897,69.9995,200.3023,269.1884,201.3887,-0.0079887,-0.00094255,0.0,0 STARLINK-6231,1 56779U 23078N   23357.25001157 -.00094255  00000-0 -79887-2 0  9993,2 56779  69.9995 200.3023 0002897 269.1884 201.3887 14.98376328 32484,6950.05,96.104,573.928,569.901,0.0
56779.0,STARLINK-6231,PAYLOAD,2023-12-23 14:00:01,14.98333586,0.0003055,69.9998,199.4619,264.9845,203.0817,0.00034582,4.036e-05,0.0,0 STARLINK-6231,1 56779U 23078N   23357.58334491  .00004036  00000-0  34582-3 0  9999,2 56779  69.9998 199.4619 0003055 264.9845 203.0817 14.98333586 32530,6950.182,96.107,574.17,569.924,0.0
56779.0,STARLINK-6231,PAYLOAD,2023-12-23 22:00:00,14.98322374,0.000309,69.9997,198.6213,271.7202,193.8418,0.00077908,9.213e-05,0.0,0 STARLINK-6231,1 56779U 23078N   23357.91667824  .00009213  00000-0  77908-3 0  9996,2 56779  69.9997 198.6213 0003090 271.7202 193.8418 14.98322374  5741,6950.216,96.107,574.229,569.934,0.0
56779.0,STARLINK-6231,PAYLOAD,2023-12-24 14:00:01,14.98339529,0.0003116,69.9996,196.9403,266.1867,194.3313,0.00017511,1.997e-05,0.0,0 STARLINK-6231,1 56779U 23078N   23358.58334491  .00001997  00000-0  17511-3 0  9996,2 56779  69.9996 196.9403 0003116 266.1867 194.3313 14.98339529  5847,6950.163,96.106,574.194,569.863,0.0
56779.0,STARLINK-6231,PAYLOAD,2023-12-24 22:00:00,14.98325022,0.0003134,69.9994,196.0999,272.8577,185.1605,0.00050477,5.934e-05,0.0,0 STARLINK-6231,1 56779U 23078N   23358.91667824  .00005934  00000-0  50477-3 0  9995,2 56779  69.9994 196.0999 0003134 272.8577 185.1605 14.98325022 32731,6950.208,96.107,574.251,569.895,0.0
56779.0,STARLINK-6231,PAYLOAD,2023-12-25 14:00:01,14.98341623,0.0003166,69.9994,194.419,267.5364,185.4355,-0.0005107,-6.183e-05,0.0,0 STARLINK-6231,1 56779U 23078N   23359.58334491 -.00006183  00000-0 -51070-3 0  9999,2 56779  69.9994 194.4190 0003166 267.5364 185.4355 14.98341623  5905,6950.157,96.106,574.222,569.822,0.0
56779.0,STARLINK-6231,PAYLOAD,2023-12-25 22:00:00,14.98318,0.0003139,69.9994,193.5786,273.6984,176.7726,0.0017866,0.00021283,0.0,0 STARLINK-6231,1 56779U 23078N   23359.91667824  .00021283  00000-0  17866-2 0  9995,2 56779  69.9994 193.5786 0003139 273.6984 176.7726 14.98318000  5955,6950.23,96.108,574.277,569.913,0.0
56779.0,STARLINK-6231,PAYLOAD,2023-12-26 06:00:00,14.98336618,0.0003086,69.9993,192.7381,270.774,177.177,-0.0021591,-0.00025765,0.0,0 STARLINK-6231,1 56779U 23078N   23360.25001157 -.00025765  00000-0 -21591-2 0  9996,2 56779  69.9993 192.7381 0003086 270.7740 177.1770 14.98336618 32932,6950.172,96.107,574.182,569.893,0.0
56779.0,STARLINK-6231,PAYLOAD,2023-12-26 13:37:13,14.98331041,0.0002973,69.9988,191.9385,265.6231,94.4589,-1.0368e-05,-2.17e-06,0.0,0 STARLINK-6231,1 56779U 23078N   23360.56751602 -.00000217  00000-0 -10368-4 0  9994,2 56779  69.9988 191.9385 0002973 265.6231  94.4589 14.98331041 32713,6950.19,96.107,574.121,569.988,0.0
56779.0,STARLINK-6231,PAYLOAD,2023-12-26 20:01:45,14.98331471,0.0002961,69.9991,191.2652,266.2179,93.8641,-1.5005e-06,-1.11e-06,0.0,0 STARLINK-6231,1 56779U 23078N   23360.83455522 -.00000111  00000-0 -15005-5 0  9993,2 56779  69.9991 191.2652 0002961 266.2179  93.8641 14.98331471 33026,6950.188,96.107,574.111,569.995,0.0
56779.0,STARLINK-6231,PAYLOAD,2023-12-26 21:37:53,14.98330999,0.0002969,69.9991,191.0968,266.6391,93.4428,-6.8511e-06,-1.75e-06,0.0,0 STARLINK-6231,1 56779U 23078N   23360.90131562 -.00000175  00000-0 -68511-5 0  9996,2 56779  69.9991 191.0968 0002969 266.6391  93.4428 14.98330999 32765,6950.19,96.107,574.118,569.991,0.0
